STARLINK-6096           
1 56103U 23046L   23110.91667824 -.00009635  00000+0 -16839-3 0  9994
2 56103  42.9988 132.2186 0001444 264.7389   6.1015 15.48909606  1307
STARLINK-6062           
1 56104U 23046M   23110.91667824  .00015766  00000+0  29061-3 0  9996
2 56104  42.9988 132.2215 0001469 261.5209   8.0296 15.48906235  1301
STARLINK-6066           
1 56105U 23046N   23110.91667824  .00010421  00000+0  19426-3 0  9994
2 56105  42.9990 132.2063 0001470 263.6945  12.2439 15.48907098  1302
STARLINK-6078           
1 56106U 23046P   23110.91667824 -.00004133  00000+0 -68729-4 0  9991
2 56106  42.9996 132.2133 0001294 250.1071  23.2862 15.48907826  1303
STARLINK-6030           
1 56107U 23046Q   23110.91667824 -.00023840  00000+0 -42622-3 0  9991
2 56107  42.9994 132.2009 0001582 255.6782  22.8251 15.48918856  1305
STARLINK-6081           
1 56108U 23046R   23110.91667824  .00030022  00000+0  54701-3 0  9991
2 56108  42.9984 132.2142 0001452 263.9933   8.1091 15.48900799  1305
STARLINK-6083           
1 56109U 23046S   23110.91667824 -.00014376  00000+0 -25435-3 0  9990
2 56109  42.9998 132.2047 0001536 259.2020  18.0215 15.48913565  1306
STARLINK-6082           
1 56110U 23046T   23110.91667824  .00046133  00000+0  83535-3 0  9991
2 56110  42.9989 132.2093 0001601 274.5291   0.0206 15.48909120  1305
STARLINK-6084           
1 56111U 23046U   23110.91667824  .00006527  00000+0  12400-3 0  9998
2 56111  42.9995 132.1883 0001328 261.5448  22.0607 15.48906142  1305
STARLINK-6080           
1 56112U 23046V   23110.91667824 -.00006365  00000+0 -10914-3 0  9999
2 56112  42.9990 132.1939 0001493 251.3989  29.6525 15.48911672  1309
STARLINK-6113           
1 56113U 23046W   23110.91667824  .00023596  00000+0  43157-3 0  9998
2 56113  42.9998 132.1861 0001529 266.2846  18.5943 15.48901030  1307
STARLINK-6103           
1 56114U 23046X   23110.91667824 -.00015058  00000+0 -26672-3 0  9998
2 56114  42.9993 132.1976 0001544 254.2371  25.5412 15.48913877  1308
STARLINK-6101           
1 56115U 23046Y   23110.91667824  .00040885  00000+0  74195-3 0  9996
2 56115  42.9999 132.1797 0001824 269.8324  17.5969 15.48891890  1305
STARLINK-6114           
1 56116U 23046Z   23110.91667824 -.00004828  00000+0 -81309-4 0  9992
2 56116  42.9987 132.1903 0001413 255.2819  27.0531 15.48906648  1303
STARLINK-6107           
1 56117U 23046AA  23110.44878899  .00011610  00000+0  91833-4 0  9995
2 56117  42.9998 133.6173 0001873 249.6616 110.4050 15.71361952  3947
STARLINK-6105           
1 56118U 23046AB  23110.91667824  .00013270  00000+0  24566-3 0  9994
2 56118  42.9992 132.1820 0001454 263.9891  22.1706 15.48903230  1304
STARLINK-6091           
1 56119U 23046AC  23110.44847172 -.00010658  00000+0 -78111-4 0  9994
2 56119  42.9994 133.6137 0001223 299.2092  60.8653 15.71303419  3405
STARLINK-6079           
1 56120U 23046AD  23110.76671467  .00083266  00000+0  63206-3 0  9994
2 56120  42.9989 131.7010 0000967 320.9020  39.1777 15.71356725  3456
STARLINK-6092           
1 56121U 23046AE  23109.43159303  .00119707  00000+0  89927-3 0  9995
2 56121  42.9997 139.7495 0002186 291.8838  68.1797 15.71458955  3787
STARLINK-6094           
1 56122U 23046AF  23110.91667824  .00003378  00000+0  67110-4 0  9990
2 56122  42.9991 132.1753 0001358 264.8107  23.9077 15.48904644  1306
STARLINK-6115           
1 56123U 23046AH  23110.25747341  .00045918  00000+0  35189-3 0  9997
2 56123  43.0001 134.7615 0001105 251.8610 108.2137 15.71341456  3916
STARLINK-6126           
1 56124U 23046AJ  23110.44868503  .00077229  00000+0  58706-3 0  9993
2 56124  42.9995 133.6142 0001653 295.2324  64.8373 15.71349953  3944
STARLINK-6119           
1 56125U 23046AK  23110.76608340  .00012794  00000+0  10094-3 0  9994
2 56125  42.9999 131.6958 0000942 289.3217  70.7549 15.71335224  3450
STARLINK-6124           
1 56126U 23046AL  23110.25736566  .00071234  00000+0  54201-3 0  9993
2 56126  42.9999 134.7595 0001240 311.5272  48.5490 15.71356246  3379
STARLINK-6104           
1 56127U 23046AM  23110.76555387  .00061667  00000+0  47075-3 0  9990
2 56127  42.9997 131.6925 0001731 271.8018  88.2651 15.71328534  3450
STARLINK-6122           
1 56128U 23046AN  23110.25768061  .00042785  00000+0  32815-3 0  9996
2 56128  42.9999 134.7626 0001078 268.3442  91.7302 15.71347496  3912
STARLINK-6121           
1 56129U 23046AP  23110.23812537  .00097041  00000+0  65899-3 0  9996
2 56129  43.0003 134.6084 0000577 261.0097  99.0706 15.73913136  3918
STARLINK-6117           
1 56130U 23046AQ  23110.44794688 -.00001763  00000+0 -10005-4 0  9995
2 56130  42.9999 133.6091 0001235 287.7320  72.3413 15.71347740  3947
STARLINK-6120           
1 56131U 23046AR  23110.44720312  .00011671  00000+0  92280-4 0  9991
2 56131  42.9997 133.6034 0004246 245.4518 114.5907 15.71361310  3944
STARLINK-6071           
1 56132U 23046AS  23110.44784556  .00002875  00000+0  25373-4 0  9997
2 56132  42.9996 133.6057 0002540 247.8901 112.1698 15.71349381  3941
STARLINK-5566           
1 56133U 23046AT  23110.44731507  .00013724  00000+0  10794-3 0  9991
2 56133  42.9996 133.6040 0002025 278.4476  81.6162 15.71352275  3941
STARLINK-5564           
1 56134U 23046AU  23110.44752746  .00015777  00000+0  12355-3 0  9995
2 56134  42.9999 133.6055 0001562 308.4389  51.6339 15.71351756  3400
STARLINK-5563           
1 56135U 23046AV  23110.51045105  .00055208  00000+0  42051-3 0  9997
2 56135  42.9996 133.2179 0004088 236.8336 123.2140 15.71412374  3414
STARLINK-5489           
1 56136U 23046AW  23110.25673236  .00001617  00000+0  15764-4 0  9998
2 56136  42.9999 134.7555 0001208 258.3232 101.7500 15.71369537  3375
STARLINK-5090           
1 56137U 23046AX  23110.44647621  .00031232  00000+0  24073-3 0  9997
2 56137  43.0002 133.5990 0001306 275.5808  84.4910 15.71354938  3407
STARLINK-4774           
1 56138U 23046AY  23110.51056767  .00007744  00000+0  62512-4 0  9993
2 56138  42.9999 133.2171 0001274 281.1393  78.9332 15.71328524  3953
STARLINK-5378           
1 56139U 23046AZ  23110.51025449  .00066351  00000+0  50595-3 0  9993
2 56139  42.9998 133.2170 0000905 267.3956  92.6808 15.71330161  3415
STARLINK-5375           
1 56140U 23046BA  23110.51045692  .00090419  00000+0  67811-3 0  9998
2 56140  42.9998 133.2170 0003293 259.3126 100.7371 15.71608050  3411
STARLINK-5377           
1 56141U 23046BB  23110.44637244 -.00003421  00000+0 -22659-4 0  9992
2 56141  43.0011 133.5967 0001389 248.8287 111.2432 15.71351804  3408
STARLINK-5376           
1 56142U 23046BC  23110.76460990  .00029630  00000+0  22869-3 0  9990
2 56142  42.9995 131.6828 0001174 286.8509  73.2230 15.71345215  3451
STARLINK-5016           
1 56143U 23046BD  23110.76387443  .00143539  00000+0  10637-2 0  9996
2 56143  43.0003 131.6784 0003440 308.4709  51.5850 15.71695859  3455
STARLINK-5374           
1 56144U 23046BE  23110.76430324  .00085771  00000+0  64472-3 0  9994
2 56144  42.9988 131.6759 0002823 310.7272  49.3350 15.71575200  3450
STARLINK-5370           
1 56145U 23046BF  23110.44604984  .00018077  00000+0  14089-3 0  9999
2 56145  42.9998 133.5952 0001708 255.7408 104.3270 15.71373791  3946
STARLINK-5111           
1 56146U 23046BG  23110.76398007  .00155325  00000+0  11490-2 0  9991
2 56146  43.0001 131.6796 0004237 300.1511  59.8937 15.71695364  3452
STARLINK-5140           
1 56147U 23046BH  23110.44584423  .00013923  00000+0  10946-3 0  9999
2 56147  43.0002 133.5930 0001618 279.0497  81.0188 15.71350524  3947
STARLINK-5089           
1 56148U 23046BJ  23110.76367052  .00081628  00000+0  60675-3 0  9993
2 56148  42.9995 131.6770 0003319 316.5294  43.5312 15.71856611  3456
FALCON 9 DEB            
1 56149U 23046BK  23110.22803430  .00584801  15675-3  11001-2 0  9997
2 56149  43.0077 131.8358 0023242 123.8275 236.4820 15.99490497  3407
FALCON 9 DEB            
1 56150U 23046BL  23110.09236582  .00667819  20965-3  11633-2 0  9992
2 56150  43.0028 132.5239 0021253 125.1288 235.1586 16.00900828  3389
FALCON 9 DEB            
1 56151U 23046BM  23110.07734280  .00636000  19214-3  10519-2 0  9994
2 56151  43.0008 132.3887 0020259 115.3320 244.9659 16.01817709  3383
FALCON 9 DEB            
1 56152U 23046BN  23110.76644387  .00543801  13943-3  91637-3 0  9999
2 56152  42.9965 128.0848 0019187 122.3038 237.9702 16.01545313  3497
2023-047A               
1 56153U 23047A   23111.04665035 -.00256751  00000+0 -12980-1 0  9991
2 56153  97.4357 298.8740 0009680 175.7905 300.3626 15.18216163  3289
2023-047B               
1 56154U 23047B   23111.04222986 -.00392998  00000+0 -20175-1 0  9995
2 56154  97.4382 298.8866 0009601 195.8801 279.9752 15.18318934  3288
2023-047C               
1 56155U 23047C   23110.91653450  .00109165  00000+0  52001-2 0  9999
2 56155  97.4378 298.7651 0013055 201.5552 311.9570 15.18576119  3265
2023-047D               
1 56156U 23047D   23110.69808139 -.00349194  00000+0 -17530-1 0  9998
2 56156  97.4380 298.5575 0010057 216.5529 210.1555 15.18884514  3232
2023-048A               
1 56157U 23048A   23110.77957608  .00000031  00000+0  20453-3 0  9997
2 56157  63.4029 180.4260 0010305 305.0411  54.9648 13.45270551  2768
2023-048B               
1 56158U 23048B   23110.92786693 -.00000100  00000+0 -40359-5 0  9997
2 56158  63.4109 177.7944 0124303  42.8606 318.2039 13.68400287  2825
2023-049A               
1 56159U 23049A   23110.64127696  .00053559  00000+0  19627-2 0  9995
2 56159  97.4094 255.7145 0013559 219.0112 202.3263 15.27728516  2766
2023-050A               
1 56162U 23050A   23110.71305121  .00000106  00000+0  84459-4 0  9997
2 56162  80.9994  97.6684 0006154 177.6925 182.4260 13.84579736  2507
2023-050B               
1 56163U 23050B   23110.71230397  .00000011  00000+0  00000+0 0  9990
2 56163  80.9990  97.6703 0006262 173.7916 186.3333 13.84635925  2511
